H1 CPF  1  HTS 2022  2 25 12  5561 larets           NONE
H2  0304206 5557    27944 2022 02 25  0  0  0 2022 03 02  0  0  0   180 1 1  0 0 0
H5  0.0560 
H9 
10 0 59639  20520.00000  0    -705991.917    2625106.251   -6516200.698
10 0 59639  20700.00000  0     107294.805    1593036.222   -6877524.638
10 0 59639  20880.00000  0     888573.065     482313.607   -6987829.238
10 0 59639  21060.00000  0    1608020.473    -665577.684   -6843156.726
10 0 59639  21240.00000  0    2239164.426   -1807083.178   -6448763.080
10 0 59639  21420.00000  0    2759847.556   -2898211.003   -5818938.241
10 0 59639  21600.00000  0    3153010.254   -3896216.078   -4976530.312
10 0 59639  21780.00000  0    3407263.333   -4761286.623   -3952163.634
10 0 59639  21960.00000  0    3517222.185   -5458154.500   -2783167.394
10 0 59639  22140.00000  0    3483594.571   -5957574.310   -1512245.854
10 0 59639  22320.00000  0    3313009.434   -6237594.714    -185916.296
10 0 59639  22500.00000  0    3017588.374   -6284549.590    1147224.030
10 0 59639  22680.00000  0    2614278.479   -6093712.228    2438324.528
10 0 59639  22860.00000  0    2123982.478   -5669574.556    3640121.706
10 0 59639  23040.00000  0    1570531.491   -5025737.415    4708700.045
10 0 59639  23220.00000  0     979561.325   -4184431.597    5605102.520
10 0 59639  23400.00000  0     377348.471   -3175694.768    6296734.621
10 0 59639  23580.00000  0    -210340.734   -2036244.551    6758507.089
10 0 59639  23760.00000  0    -759332.101    -808113.344    6973691.187
10 0 59639  23940.00000  0   -1248018.668     462905.280    6934484.896
10 0 59639  24120.00000  0   -1658198.401    1728953.732    6642276.923
10 0 59639  24300.00000  0   -1975747.058    2941893.968    6107603.616
10 0 59639  24480.00000  0   -2191106.397    4055124.647    5349801.639
10 0 59639  24660.00000  0   -2299572.553    5025376.955    4396360.146
10 0 59639  24840.00000  0   -2301375.025    5814429.108    3281976.708
10 0 59639  25020.00000  0   -2201539.080    6390665.071    2047329.682
10 0 59639  25200.00000  0   -2009534.349    6730401.900     737602.948
10 0 59639  25380.00000  0   -1738721.266    6818918.664    -599185.788
10 0 59639  25560.00000  0   -1405622.356    6651128.581   -1913989.434
10 0 59639  25740.00000  0   -1029051.919    6231842.615   -3158594.845
10 0 59639  25920.00000  0    -629154.423    5575604.176   -4287436.233
10 0 59639  26100.00000  0    -226407.656    4706130.137   -5259282.637
10 0 59639  26280.00000  0     159361.293    3655387.592   -6038738.999
10 0 59639  26460.00000  0     509901.046    2462354.066   -6597506.416
10 0 59639  26640.00000  0     809356.852    1171522.242   -6915360.024
10 0 59639  26820.00000  0    1044955.459    -168778.996   -6980830.007
10 0 59639  27000.00000  0    1207530.560   -1508191.839   -6791579.629
10 0 59639  27180.00000  0    1291871.454   -2796203.247   -6354473.632
10 0 59639  27360.00000  0    1296888.467   -3984028.195   -5685349.507
10 0 59639  27540.00000  0    1225588.012   -5026459.875   -4808487.560
10 0 59639  27720.00000  0    1084858.565   -5883613.331   -3755777.074
10 0 59639  27900.00000  0     885073.124   -6522499.384   -2565599.718
10 0 59639  28080.00000  0     639523.502   -6918357.581   -1281451.445
10 0 59639  28260.00000  0     363711.659   -7055679.710      49654.312
10 0 59639  28440.00000  0      74530.076   -6928861.530    1378940.448
10 0 59639  28620.00000  0    -210625.092   -6542447.919    2657699.088
10 0 59639  28800.00000  0    -474761.350   -5910953.378    3839126.380
10 0 59639  28980.00000  0    -702169.036   -5058262.353    4880066.455
10 0 59639  29160.00000  0    -879227.174   -4016660.354    5742587.464
10 0 59639  29340.00000  0    -995095.915   -2825548.840    6395341.291
10 0 59639  29520.00000  0   -1042265.373   -1529903.169    6814657.848
10 0 59639  29700.00000  0   -1016939.273    -178554.864    6985349.299
10 0 59639  29880.00000  0    -919244.359    1177644.781    6901223.579
10 0 59639  30060.00000  0    -753253.859    2487722.110    6565294.190
10 0 59639  30240.00000  0    -526822.558    3702479.567    5989684.068
10 0 59639  30420.00000  0    -251242.144    4776338.063    5195224.330
10 0 59639  30600.00000  0      59273.104    5669065.802    4210751.753
10 0 59639  30780.00000  0     388253.587    6347330.458    3072110.858
10 0 59639  30960.00000  0     717767.085    6786011.565    1820888.357
10 0 59639  31140.00000  0    1029307.811    6969210.964     502892.993
10 0 59639  31320.00000  0    1304734.138    6890881.668    -833550.851
10 0 59639  31500.00000  0    1527205.397    6555050.864   -2139420.636
10 0 59639  31680.00000  0    1682065.601    5975623.357   -3366844.236
10 0 59639  31860.00000  0    1757630.319    5175775.543   -4470898.999
10 0 59639  32040.00000  0    1745836.340    4186968.937   -5411278.983
10 0 59639  32220.00000  0    1642720.909    3047644.007   -6153756.415
10 0 59639  32400.00000  0    1448710.245    1801668.223   -6671391.928
10 0 59639  32580.00000  0    1168707.479     496611.519   -6945459.691
10 0 59639  32760.00000  0     811981.124    -818077.890   -6966076.319
10 0 59639  32940.00000  0     391855.372   -2092937.270   -6732523.143
10 0 59639  33120.00000  0     -74783.734   -3280327.008   -6253263.423
10 0 59639  33300.00000  0    -568153.761   -4336198.349   -5545662.701
10 0 59639  33480.00000  0   -1066391.986   -5221736.080   -4635402.232
10 0 59639  33660.00000  0   -1546495.260   -5904819.011   -3555597.701
10 0 59639  33840.00000  0   -1985349.916   -6361239.491   -2345633.570
10 0 59639  34020.00000  0   -2360805.075   -6575623.403   -1049744.434
10 0 59639  34200.00000  0   -2652738.093   -6542002.918     284613.640
10 0 59639  34380.00000  0   -2844056.611   -6264000.343    1608539.174
10 0 59639  34560.00000  0   -2921582.269   -5754607.935    2873526.915
10 0 59639  34740.00000  0   -2876767.743   -5035575.926    4033289.815
10 0 59639  34920.00000  0   -2706209.911   -4136446.568    5045477.064
10 0 59639  35100.00000  0   -2411939.257   -3093291.055    5873218.639
10 0 59639  35280.00000  0   -2001472.457   -1947214.782    6486440.217
10 0 59639  35460.00000  0   -1487628.345    -742709.567    6862910.266
10 0 59639  35640.00000  0    -888120.643     474083.695    6988997.415
10 0 59639  35820.00000  0    -224947.424    1657131.894    6860124.120
10 0 59639  36000.00000  0     476408.971    2762233.231    6480923.680
10 0 59639  36180.00000  0    1187949.343    3748656.309    5865089.423
10 0 59639  36360.00000  0    1880258.960    4580643.753    5034920.715
10 0 59639  36540.00000  0    2523709.832    5228735.056    4020568.023
10 0 59639  36720.00000  0    3089721.049    5670854.009    2858986.297
10 0 59639  36900.00000  0    3552025.600    5893120.190    1592620.611
10 0 59639  37080.00000  0    3887881.247    5890332.673     267848.413
10 0 59639  37260.00000  0    4079157.632    5666090.104   -1066750.212
10 0 59639  37440.00000  0    4113246.397    5232539.708   -2362221.788
10 0 59639  37620.00000  0    3983742.525    4609768.019   -3571086.496
10 0 59639  37800.00000  0    3690857.491    3824863.536   -4649119.815
10 0 59639  37980.00000  0    3241547.509    2910706.832   -5556984.999
10 0 59639  38160.00000  0    2649356.378    1904555.112   -6261655.671
10 0 59639  38340.00000  0    1933983.699     846492.023   -6737578.022
10 0 59639  38520.00000  0    1120605.604    -222182.619   -6967542.624
10 0 59639  38700.00000  0     238977.603   -1260559.371   -6943260.946
10 0 59639  38880.00000  0    -677654.121   -2229670.344   -6665634.066
10 0 59639  39060.00000  0   -1593792.837   -3093933.325   -6144719.352
10 0 59639  39240.00000  0   -2473050.471   -3822454.022   -5399393.653
10 0 59639  39420.00000  0   -3279581.932   -4390142.916   -4456717.176
10 0 59639  39600.00000  0   -3979551.508   -4778611.192   -3351001.285
10 0 59639  39780.00000  0   -4542566.722   -4976801.652   -2122594.631
10 0 59639  39960.00000  0   -4943015.921   -4981323.954    -816422.753
10 0 59639  40140.00000  0   -5161240.853   -4796472.276     519670.849
10 0 59639  40320.00000  0   -5184480.157   -4433920.010    1836716.801
10 0 59639  40500.00000  0   -5007528.339   -3912099.854    3086466.735
10 0 59639  40680.00000  0   -4633074.464   -3255302.766    4223203.315
10 0 59639  40860.00000  0   -4071708.110   -2492549.097    5205434.242
10 0 59639  41040.00000  0   -3341596.332   -1656293.243    5997397.592
10 0 59639  41220.00000  0   -2467860.716    -781034.370    6570330.272
10 0 59639  41400.00000  0   -1481679.517      98111.169    6903469.738
10 0 59639  41580.00000  0    -419153.848     946812.009    6984754.579
10 0 59639  41760.00000  0     680010.420    1732844.917    6811226.982
10 0 59639  41940.00000  0    1773971.142    2427306.319    6389134.525
10 0 59639  42120.00000  0    2820325.253    3005669.705    5733725.189
10 0 59639  42300.00000  0    3777743.567    3448659.111    4868742.699
10 0 59639  42480.00000  0    4607612.080    3742910.928    3825618.317
10 0 59639  42660.00000  0    5275616.466    3881396.621    2642377.914
10 0 59639  42840.00000  0    5753206.000    3863584.574    1362277.094
10 0 59639  43020.00000  0    6018852.611    3695323.870      32212.298
10 0 59639  43200.00000  0    6059040.857    3388453.570   -1299033.672
10 0 59639  43380.00000  0    5868928.970    2960152.023   -2582632.133
10 0 59639  43560.00000  0    5452645.309    2432063.276   -3771549.182
10 0 59639  43740.00000  0    4823209.595    1829247.547   -4822305.971
10 0 59639  43920.00000  0    4002081.600    1179008.827   -5696581.779
10 0 59639  44100.00000  0    3018369.818     509666.522   -6362589.547
10 0 59639  44280.00000  0    1907746.974    -150667.712   -6796188.712
10 0 59639  44460.00000  0     711123.951    -775256.503   -6981707.042
10 0 59639  44640.00000  0    -526866.355   -1339804.381   -6912464.004
10 0 59639  44820.00000  0   -1759525.035   -1823387.938   -6590985.856
99
